NORAD_CAT_ID,OBJECT_NAME,OBJECT_TYPE,EPOCH,MEAN_MOTION,ECCENTRICITY,INCLINATION,RA_OF_ASC_NODE,ARG_OF_PERICENTER,MEAN_ANOMALY,BSTAR,MEAN_MOTION_DOT,MEAN_MOTION_DDOT,TLE_LINE0,TLE_LINE1,TLE_LINE2,SEMIMAJOR_AXIS,PERIOD,APOGEE,PERIGEE,DECAYED
53991.0,STARLINK-5118,PAYLOAD,2024-05-16 03:51:30,15.08870738,0.0001714,53.2162,298.2599,63.7542,296.3626,-0.0003641,-6.083e-05,0.0,0 STARLINK-5118,1 53991U 22125AD  24137.16077444 -.00006083  00000-0 -36410-3 0  9995,2 53991  53.2162 298.2599 0001714  63.7542 296.3626 15.08870738 89651,6917.786,95.436,540.837,538.466,0.0
53991.0,STARLINK-5118,PAYLOAD,2024-05-16 10:13:03,15.08859872,0.0002349,53.2139,297.0735,71.111,289.0137,-0.00038704,-6.447e-05,0.0,0 STARLINK-5118,1 53991U 22125AD  24137.42573625 -.00006447  00000-0 -38704-3 0  9998,2 53991  53.2139 297.0735 0002349  71.1110 289.0137 15.08859872 89611,6917.82,95.436,541.31,538.06,0.0
53991.0,STARLINK-5118,PAYLOAD,2024-05-16 19:45:23,15.0884332,0.0002166,53.2146,295.2886,71.5781,288.5446,-0.0002595,-4.416e-05,0.0,0 STARLINK-5118,1 53991U 22125AD  24137.82318306 -.00004416  00000-0 -25950-3 0  9998,2 53991  53.2146 295.2886 0002166  71.5781 288.5446 15.08843320 89754,6917.87,95.437,541.234,538.237,0.0
53991.0,STARLINK-5118,PAYLOAD,2024-05-17 03:42:18,15.08829084,0.0001351,53.2168,293.8025,82.9187,277.1959,-0.00037444,-6.24e-05,0.0,0 STARLINK-5118,1 53991U 22125AD  24138.15438434 -.00006240  00000-0 -37444-3 0  9998,2 53991  53.2168 293.8025 0001351  82.9187 277.1959 15.08829084 89808,6917.914,95.438,540.713,538.844,0.0
53991.0,STARLINK-5118,PAYLOAD,2024-05-17 10:03:51,15.08823528,0.0001749,53.2141,292.6119,93.0303,267.0889,-0.00027519,-4.663e-05,0.0,0 STARLINK-5118,1 53991U 22125AD  24138.41935044 -.00004663  00000-0 -27519-3 0  9995,2 53991  53.2141 292.6119 0001749  93.0303 267.0889 15.08823528 89766,6917.931,95.439,541.006,538.586,0.0
53991.0,STARLINK-5118,PAYLOAD,2024-05-17 16:25:24,15.08824613,0.0001567,53.2135,291.4235,90.9567,269.1604,-4.6742e-05,-1.031e-05,0.0,0 STARLINK-5118,1 53991U 22125AD  24138.68431328 -.00001031  00000-0 -46742-4 0  9996,2 53991  53.2135 291.4235 0001567  90.9567 269.1604 15.08824613 89800,6917.927,95.439,540.876,538.708,0.0
53991.0,STARLINK-5118,PAYLOAD,2024-05-18 09:54:39,15.08848174,0.0001795,53.2133,288.1519,84.9042,275.2155,0.00081687,0.00012739,0.0,0 STARLINK-5118,1 53991U 22125AD  24139.41295567  .00012739  00000-0  81687-3 0  9992,2 53991  53.2133 288.1519 0001795  84.9042 275.2155 15.08848174 89997,6917.855,95.437,540.962,538.479,0.0
53991.0,STARLINK-5118,PAYLOAD,2024-05-18 14:40:48,15.08864491,0.0001652,53.214,287.2614,81.7873,278.3306,0.0012685,0.00019971,0.0,0 STARLINK-5118,1 53991U 22125AD  24139.61167184  .00019971  00000-0  12685-2 0  9993,2 53991  53.2140 287.2614 0001652  81.7873 278.3306 15.08864491 89947,6917.806,95.436,540.813,538.528,0.0
53991.0,STARLINK-5118,PAYLOAD,2024-05-18 16:16:11,15.08874659,0.0001539,53.2135,286.9612,102.0936,258.0228,0.0015519,0.0002452,0.0,0 STARLINK-5118,1 53991U 22125AD  24139.67790852  .00024520  00000-0  15519-2 0  9998,2 53991  53.2135 286.9612 0001539 102.0936 258.0228 15.08874659 90033,6917.774,95.435,540.704,538.575,0.0
53991.0,STARLINK-5118,PAYLOAD,2024-05-19 03:23:52,15.08874877,0.0001304,53.214,284.8818,85.194,274.9201,0.00068124,0.00010581,0.0,0 STARLINK-5118,1 53991U 22125AD  24140.14157926  .00010581  00000-0  68124-3 0  9994,2 53991  53.2140 284.8818 0001304  85.1940 274.9201 15.08874877 90108,6917.774,95.435,540.541,538.737,0.0
53991.0,STARLINK-5118,PAYLOAD,2024-05-19 12:56:11,15.08854099,0.00012,53.2144,283.0979,96.9814,263.1315,-6.2306e-05,-1.28e-05,0.0,0 STARLINK-5118,1 53991U 22125AD  24140.53901831 -.00001280  00000-0 -62306-4 0  9994,2 53991  53.2144 283.0979 0001200  96.9814 263.1315 15.08854099 90083,6917.837,95.437,540.532,538.872,0.0
53991.0,STARLINK-5118,PAYLOAD,2024-05-19 16:06:57,15.08854649,0.0001535,53.2169,282.5011,116.7997,243.3152,0.0011491,0.00018055,0.0,0 STARLINK-5118,1 53991U 22125AD  24140.67149742  .00018055  00000-0  11491-2 0  9997,2 53991  53.2169 282.5011 0001535 116.7997 243.3152 15.08854649 90186,6917.836,95.437,540.763,538.639,0.0
53991.0,STARLINK-5118,PAYLOAD,2024-05-20 12:46:58,15.08836333,0.0001277,53.2162,278.6345,82.3241,277.7896,0.00069378,0.0001077,0.0,0 STARLINK-5118,1 53991U 22125AD  24141.53262479  .00010770  00000-0  69378-3 0  9990,2 53991  53.2162 278.6345 0001277  82.3241 277.7896 15.08836333 90319,6917.892,95.438,540.64,538.873,0.0
53991.0,STARLINK-5118,PAYLOAD,2024-05-20 14:22:21,15.08838021,0.0001305,53.2163,278.337,87.2971,272.817,0.00041886,6.384e-05,0.0,0 STARLINK-5118,1 53991U 22125AD  24141.59886439  .00006384  00000-0  41886-3 0  9994,2 53991  53.2163 278.3370 0001305  87.2971 272.8170 15.08838021 90240,6917.886,95.438,540.654,538.849,0.0
53991.0,STARLINK-5118,PAYLOAD,2024-05-21 12:37:46,15.08837613,0.000147,53.217,274.1756,108.6092,251.506,0.00036801,5.573e-05,0.0,0 STARLINK-5118,1 53991U 22125AD  24142.52623092  .00005573  00000-0  36801-3 0  9992,2 53991  53.2170 274.1756 0001470 108.6092 251.5060 15.08837613 90467,6917.888,95.438,540.77,538.736,0.0
53991.0,STARLINK-5118,PAYLOAD,2024-05-21 14:13:09,15.08840456,0.0001463,53.2173,273.8784,106.8143,253.301,0.00047672,7.307e-05,0.0,0 STARLINK-5118,1 53991U 22125AD  24142.59247068  .00007307  00000-0  47672-3 0  9999,2 53991  53.2173 273.8784 0001463 106.8143 253.3010 15.08840456 90392,6917.879,95.438,540.756,538.732,0.0
53991.0,STARLINK-5118,PAYLOAD,2024-05-21 15:48:32,15.08843967,0.0001577,53.2179,273.583,104.5043,255.6124,0.00061965,9.589e-05,0.0,0 STARLINK-5118,1 53991U 22125AD  24142.65871053  .00009589  00000-0  61965-3 0  9998,2 53991  53.2179 273.5830 0001577 104.5043 255.6124 15.08843967 90400,6917.868,95.437,540.824,538.642,0.0
53991.0,STARLINK-5118,PAYLOAD,2024-05-22 12:28:33,15.08840057,0.0001425,53.2171,269.7137,96.6248,263.4907,0.0002481,3.663e-05,0.0,0 STARLINK-5118,1 53991U 22125AD  24143.51983423  .00003663  00000-0  24810-3 0  9994,2 53991  53.2171 269.7137 0001425  96.6248 263.4907 15.08840057 90615,6917.88,95.438,540.731,538.759,0.0
53991.0,STARLINK-5118,PAYLOAD,2024-05-23 12:19:21,15.08837511,0.0001418,53.2176,265.2545,94.4732,265.6422,0.00018525,2.661e-05,0.0,0 STARLINK-5118,1 53991U 22125AD  24144.51343826  .00002661  00000-0  18525-3 0  9995,2 53991  53.2176 265.2545 0001418  94.4732 265.6422 15.08837511 90763,6917.888,95.438,540.734,538.772,0.0
53991.0,STARLINK-5118,PAYLOAD,2024-05-23 13:54:44,15.08840737,0.0001319,53.2157,264.956,85.4117,274.7026,0.00021423,3.123e-05,0.0,0 STARLINK-5118,1 53991U 22125AD  24144.57967763  .00003123  00000-0  21423-3 0  9998,2 53991  53.2157 264.9560 0001319  85.4117 274.7026 15.08840737 90699,6917.878,95.438,540.656,538.831,0.0
53991.0,STARLINK-5118,PAYLOAD,2024-05-23 15:30:07,15.0884631,0.0001322,53.2166,264.6607,80.1292,279.9849,0.00034723,5.243e-05,0.0,0 STARLINK-5118,1 53991U 22125AD  24144.64591655  .00005243  00000-0  34723-3 0  9991,2 53991  53.2166 264.6607 0001322  80.1292 279.9849 15.08846310 90703,6917.861,95.437,540.641,538.812,0.0
53991.0,STARLINK-5118,PAYLOAD,2024-05-24 13:45:30,15.08853289,0.0001398,53.2163,260.4997,75.085,285.0297,0.00034353,5.186e-05,0.0,0 STARLINK-5118,1 53991U 22125AD  24145.57327162  .00005186  00000-0  34353-3 0  9999,2 53991  53.2163 260.4997 0001398  75.0850 285.0297 15.08853289 90845,6917.84,95.437,540.672,538.738,0.0
53991.0,STARLINK-5118,PAYLOAD,2024-05-24 15:20:53,15.08868375,0.0001118,53.2154,260.1962,114.0782,246.0327,0.00061921,9.588e-05,0.0,0 STARLINK-5118,1 53991U 22125AD  24145.63950414  .00009588  00000-0  61921-3 0  9999,2 53991  53.2154 260.1962 0001118 114.0782 246.0327 15.08868375 90856,6917.794,95.436,540.432,538.885,0.0
53991.0,STARLINK-5118,PAYLOAD,2024-05-25 00:53:13,15.08813598,4.68e-05,53.2153,258.4149,100.5337,259.5708,-0.00075829,-0.00012326,0.0,0 STARLINK-5118,1 53991U 22125AD  24146.03695810 -.00012326  00000-0 -75829-3 0  9998,2 53991  53.2153 258.4149 0000468 100.5337 259.5708 15.08813598 90999,6917.961,95.439,540.15,539.502,0.0
53991.0,STARLINK-5118,PAYLOAD,2024-05-25 13:36:18,15.08823652,0.0001223,53.2154,256.0392,59.9115,300.1998,-0.00031052,-5.224e-05,0.0,0 STARLINK-5118,1 53991U 22125AD  24146.56688286 -.00005224  00000-0 -31052-3 0  9994,2 53991  53.2154 256.0392 0001223  59.9115 300.1998 15.08823652 91071,6917.93,95.439,540.641,538.949,0.0
53991.0,STARLINK-5118,PAYLOAD,2024-05-26 00:44:00,15.08835026,0.0001353,53.2165,253.9554,77.4898,282.6246,3.5451e-05,2.76e-06,0.0,0 STARLINK-5118,1 53991U 22125AD  24147.03056183  .00000276  00000-0  35451-4 0  9990,2 53991  53.2165 253.9554 0001353  77.4898 282.6246 15.08835026 91142,6917.896,95.438,540.697,538.825,0.0
53991.0,STARLINK-5118,PAYLOAD,2024-05-26 13:27:05,15.0884361,0.0001408,53.2161,251.5772,70.114,290.0004,0.00074623,0.00011609,0.0,0 STARLINK-5118,1 53991U 22125AD  24147.56048493  .00011609  00000-0  74623-3 0  9998,2 53991  53.2161 251.5772 0001408  70.1140 290.0004 15.08843610 91148,6917.869,95.437,540.708,538.76,0.0
53991.0,STARLINK-5118,PAYLOAD,2024-05-26 16:37:52,15.08851452,0.0001321,53.2157,250.9815,69.4513,290.662,0.0008608,0.00013442,0.0,0 STARLINK-5118,1 53991U 22125AD  24147.69296349  .00013442  00000-0  86080-3 0  9994,2 53991  53.2157 250.9815 0001321  69.4513 290.6620 15.08851452 91247,6917.845,95.437,540.624,538.797,0.0
53991.0,STARLINK-5118,PAYLOAD,2024-05-27 13:17:52,15.08851971,0.0001394,53.2161,247.118,68.3007,291.8134,0.00040513,6.168e-05,0.0,0 STARLINK-5118,1 53991U 22125AD  24148.55408091  .00006168  00000-0  40513-3 0  9997,2 53991  53.2161 247.1180 0001394  68.3007 291.8134 15.08851971 91374,6917.844,95.437,540.673,538.744,0.0
53991.0,STARLINK-5118,PAYLOAD,2024-05-28 13:08:39,15.08848982,0.0001359,53.2166,242.6549,90.0041,270.1107,0.00010482,1.381e-05,0.0,0 STARLINK-5118,1 53991U 22125AD  24149.54767561  .00001381  00000-0  10482-3 0  9991,2 53991  53.2166 242.6549 0001359  90.0041 270.1107 15.08848982 91524,6917.853,95.437,540.658,538.778,0.0
